[{"OBJECT_NAME":"PROBA-1","OBJECT_ID":"2001-049B","EPOCH":"2026-03-09T22:57:25.772256","MEAN_MOTION":15.07031721,"ECCENTRICITY":0.00568356,"INCLINATION":97.9638,"RA_OF_ASC_NODE":74.0417,"ARG_OF_PERICENTER":98.1776,"MEAN_ANOMALY":262.5903,"EPHEMERIS_TYPE":0,"CLASSIFICATION_TYPE":"U","NORAD_CAT_ID":26958,"ELEMENT_SET_NO":999,"REV_AT_EPOCH":32867,"BSTAR":0.00028513173,"MEAN_MOTION_DOT":4.362e-5,"MEAN_MOTION_DDOT":0},{"OBJECT_NAME":"STARLINK-4726","OBJECT_ID":"2022-111AF","EPOCH":"2026-03-09T20:35:08.069856","MEAN_MOTION":15.088405,"ECCENTRICITY":0.00012488,"INCLINATION":53.2167,"RA_OF_ASC_NODE":263.2327,"ARG_OF_PERICENTER":88.4404,"MEAN_ANOMALY":271.6731,"EPHEMERIS_TYPE":0,"CLASSIFICATION_TYPE":"U","NORAD_CAT_ID":53802,"ELEMENT_SET_NO":999,"REV_AT_EPOCH":19384,"BSTAR":5.8338932e-5,"MEAN_MOTION_DOT":6.41e-6,"MEAN_MOTION_DDOT":0}]
